    {
      "type": "Feature",
      "properties": {
        "direction": "inbound",
        "route": "355",
        "variant": "main",
        "headsign": "Sud",
        "branch": "3559999",
        "stops": ["61545","59446","55085","55103","55120","55134","55309","55179",
                  "50993","51036","51115","51185","51246","51299","51367","51425",
                  "51480","51531","51658","51736","51793","51912","52015","52128",
                  "52242","52311","52402","52496","52596","52703","52832","52951",
                  "53018","53087","53126","53190","53154","53122","53108","53089",
                  "61355","53058","53027","53007","52964","52896","52841","52808",
                  "52762","52729","52665","52844","52906","53675","53692","53969"]
      },
      "geometry": {
        "type": "LineString",
        "coordinates": [[-73.642428,45.59686],[-73.642182,45.596926],[-73.64202,45.596953],
                         [-73.641886,45.596944],[-73.641805,45.596926],[-73.642604,45.595985],
                         [-73.642552,45.595995],[-73.642537,45.595958],[-73.642652,45.595811],
                         [-73.642515,45.595691],[-73.642568,45.595696],[-73.642575,45.595658],
                         [-73.642294,45.595397],[-73.641754,45.594876],[-73.64141,45.594564],
                         [-73.641278,45.594444],[-73.640367,45.593627],[-73.639494,45.592794],
                         [-73.639419,45.592696],[-73.639366,45.592631],[-73.63921,45.592477],
                         [-73.638735,45.592028],[-73.638479,45.591787],[-73.63754,45.590905],
                         [-73.636816,45.590208],[-73.636718,45.590114],[-73.636114,45.589547],
                         [-73.635639,45.589098],[-73.635138,45.588631],[-73.63489,45.588393],
                         [-73.634689,45.588199],[-73.634213,45.58775],[-73.633833,45.587393],
                         [-73.633764,45.587328],[-73.633263,45.586851],[-73.632836,45.586451],
                         [-73.632659,45.586285],[-73.63185,45.585512],[-73.631593,45.585271],
                         [-73.6314,45.58509],[-73.630121,45.583877],[-73.630026,45.583787],
                         [-73.629962,45.583723],[-73.629755,45.583533],[-73.62951,45.583335],
                         [-73.629276,45.583163],[-73.628993,45.582991],[-73.628708,45.582837],
                         [-73.628527,45.582755],[-73.628322,45.582666],[-73.627899,45.582477],
                         [-73.627655,45.582369],[-73.626358,45.581804],[-73.625665,45.581499],
                         [-73.625297,45.581337],[-73.624947,45.581184],[-73.624139,45.58087],
                         [-73.622229,45.580027],[-73.621726,45.579801],[-73.620908,45.579434],
                         [-73.620241,45.579147],[-73.619682,45.578896],[-73.619561,45.578842],
                         [-73.618867,45.578537],[-73.618228,45.578258],[-73.617066,45.577742],
                         [-73.616894,45.577666],[-73.615866,45.577217],[-73.614515,45.576622],
                         [-73.614516,45.576622],[-73.614175,45.576472],[-73.613059,45.575978],
                         [-73.610934,45.575042],[-73.610775,45.574972],[-73.608315,45.573891],
                         [-73.608317,45.57389],[-73.608122,45.573805],[-73.607172,45.573382],
                         [-73.606402,45.573077],[-73.605578,45.572712],[-73.605391,45.572629],
                         [-73.604607,45.572288],[-73.604313,45.572162],[-73.603956,45.571992],
                         [-73.603388,45.571718],[-73.603388,45.571717],[-73.603377,45.571713],
                         [-73.602698,45.571426],[-73.602582,45.571372],[-73.602349,45.571272],
                         [-73.602104,45.57119],[-73.60195,45.571137],[-73.601477,45.570985],
                         [-73.59871,45.569764],[-73.598379,45.569613],[-73.598047,45.569407],
                         [-73.597904,45.569325],[-73.59711,45.568969],[-73.597082,45.568956],
                         [-73.596966,45.568902],[-73.594132,45.567641],[-73.593979,45.567573],
                         [-73.592877,45.56707],[-73.592377,45.566845],[-73.592132,45.566747],
                         [-73.591579,45.56651],[-73.591439,45.56645],[-73.589286,45.565507],
                         [-73.588824,45.565316],[-73.588784,45.5653],[-73.588681,45.565263],
                         [-73.587583,45.564917],[-73.587398,45.564859],[-73.583772,45.563743],
                         [-73.583578,45.563683],[-73.579963,45.562557],[-73.579772,45.562498],
                         [-73.576239,45.561411],[-73.576004,45.56134],[-73.57417,45.560758],
                         [-73.573967,45.560693],[-73.573851,45.560657],[-73.571674,45.559966],
                         [-73.571387,45.559869],[-73.571388,45.559869],[-73.571251,45.559822],
                         [-73.570814,45.559687],[-73.568956,45.559085],[-73.568691,45.558998],
                         [-73.568546,45.558951],[-73.56811,45.558807],[-73.565823,45.558068],
                         [-73.565663,45.558017],[-73.562972,45.557163],[-73.562832,45.557119],
                         [-73.562743,45.557082],[-73.55909,45.555919],[-73.55909,45.55592],
                         [-73.558962,45.555879],[-73.555989,45.554935],[-73.555155,45.554676],
                         [-73.554977,45.554621],[-73.554695,45.554531],[-73.554516,45.554477],
                         [-73.552145,45.553713],[-73.551955,45.553659],[-73.551926,45.553649],
                         [-73.551865,45.553624],[-73.55171,45.553579],[-73.548725,45.552617],
                         [-73.548503,45.552543],[-73.548289,45.552473],[-73.547802,45.552321],
                         [-73.54499,45.551411],[-73.54483,45.551359],[-73.544369,45.551215],
                         [-73.543128,45.55082],[-73.542948,45.550757],[-73.542897,45.550741],
                         [-73.541717,45.55037],[-73.541575,45.550324],[-73.541576,45.550324],
                         [-73.541298,45.550235],[-73.541768,45.549514],[-73.542075,45.549046],
                         [-73.542393,45.548688],[-73.542479,45.548594],[-73.54256,45.548507],
                         [-73.54302,45.547967],[-73.543188,45.547768],[-73.543367,45.547497],
                         [-73.543519,45.547266],[-73.543518,45.547266],[-73.543597,45.547145],
                         [-73.544019,45.546461],[-73.544458,45.545747],[-73.544505,45.545669],
                         [-73.545004,45.544877],[-73.545307,45.544383],[-73.545364,45.544292],
                         [-73.54576,45.543635],[-73.546095,45.543094],[-73.546155,45.542997],
                         [-73.546552,45.542375],[-73.546769,45.542024],[-73.546923,45.541803],
                         [-73.546999,45.541692],[-73.547421,45.541044],[-73.547895,45.540315],
                         [-73.548297,45.539693],[-73.548352,45.539607],[-73.548438,45.539547],
                         [-73.548443,45.539543],[-73.548446,45.53954],[-73.548932,45.538676],
                         [-73.549456,45.537873],[-73.549493,45.537762],[-73.549534,45.537638],
                         [-73.549928,45.537039],[-73.550246,45.53656],[-73.550298,45.536481],
                         [-73.550682,45.535877],[-73.551078,45.535301],[-73.551411,45.534779],
                         [-73.551462,45.534698],[-73.551858,45.534122],[-73.552241,45.533538],
                         [-73.552509,45.533215],[-73.552594,45.53312],[-73.552676,45.533027],
                         [-73.553174,45.53246],[-73.553621,45.531974],[-73.55412,45.531451],
                         [-73.55424,45.531331],[-73.554299,45.531272],[-73.555049,45.530525],
                         [-73.55513,45.530444],[-73.556038,45.529501],[-73.556102,45.529435],
                         [-73.55678,45.528724],[-73.557281,45.528212],[-73.557406,45.528084],
                         [-73.557944,45.527517],[-73.558359,45.527078],[-73.55836,45.527079],
                         [-73.558431,45.527004],[-73.558827,45.526563],[-73.559184,45.526185],
                         [-73.559363,45.525997],[-73.559362,45.525997],[-73.559467,45.525886],
                         [-73.559899,45.525179],[-73.559979,45.525047],[-73.560382,45.524435],
                         [-73.560452,45.524328],[-73.560925,45.523599],[-73.561335,45.522941],
                         [-73.561716,45.522293],[-73.561769,45.522203],[-73.562153,45.521545],
                         [-73.562408,45.521131],[-73.562677,45.520672],[-73.562894,45.520313],
                         [-73.562895,45.520313],
                        [-73.562983,45.520168],[-73.563290,45.519646],[-73.563443,45.519403],
                        [-73.563711,45.518907],[-73.564005,45.518413],[-73.564260,45.518011],
                        [-73.564260,45.518012],[-73.564325,45.517909],[-73.564606,45.517404],
                        [-73.564648,45.517326],[-73.564797,45.517053],[-73.564798,45.5170389],
                        [-73.564779,45.517024],[-73.564313,45.516808],[-73.564315,45.516808],
                        [-73.564145,45.51673],[-73.563262,45.516308],[-73.561788,45.515616],
                        [-73.561123,45.515301],[-73.560701,45.515094],[-73.559855,45.514708],
                        [-73.559841,45.514701],[-73.559689,45.514627],[-73.559087,45.51433],
                        [-73.558036,45.513853],[-73.557654,45.513685],[-73.557486,45.51361],
                        [-73.557346,45.513539],[-73.556166,45.512999],[-73.555046,45.512501],
                         [-73.555487,45.512001],[-73.555822,45.51162],[-73.556026,45.511377],
                         [-73.556448,45.510918],[-73.556667,45.510655],[-73.556847,45.510384],
                         [-73.55709,45.510041],[-73.557287,45.509626],[-73.557334,45.509525],
                         [-73.557625,45.508837],[-73.558288,45.507992],[-73.558595,45.507668],
                         [-73.558722,45.507534],[-73.559119,45.507156],[-73.559324,45.506931],
                         [-73.559591,45.506652],[-73.559821,45.506428],[-73.559937,45.50631],
                         [-73.560385,45.505823],[-73.560538,45.505643],[-73.560948,45.505191],
                         [-73.561143,45.504846],[-73.561398,45.504343],[-73.561792,45.50385],
                         [-73.561795,45.503837],[-73.561772,45.503822],[-73.56039,45.503166],
                         [-73.560359,45.503156],[-73.560341,45.503168],[-73.559563,45.504121],
                         [-73.559333,45.5044],[-73.559128,45.504644],[-73.558757,45.505067],
                         [-73.558352,45.505538]]
      }
    },

    {
      "type": "Feature",
      "properties": {
        "direction": "outbound",
        "color": "#FF2600",
        "branch": "east_cancelled"
      },
      "geometry": {
        "type": "LineString",
        "coordinates": [[-73.557278,45.513561],[-73.55731,45.513576],[-73.557451,45.513648],
                         [-73.558001,45.513891],[-73.559051,45.514367],[-73.559652,45.514664],
                         [-73.55982,45.514745],[-73.560014,45.514834],[-73.560665,45.515131],
                         [-73.560922,45.515257],[-73.561087,45.515338],[-73.561753,45.515653],
                         [-73.563226,45.516345],[-73.56411,45.516767],[-73.564603,45.516995],
                         [-73.5647286,45.5170544],[-73.564546,45.517388],[-73.564334,45.517768],
                         [-73.564335,45.517768],[-73.564266,45.517891],[-73.563946,45.518395],
                         [-73.563651,45.518891],[-73.563384,45.519386],[-73.563231,45.519628],
                         [-73.563001,45.520020],[-73.562924,45.520151],[-73.5629154,45.5201686]]
      }
    },
    {
      "type": "Feature",
      "properties": {
        "direction": "inbound",
        "color": "#FFA59B",
        "branch": "west_cancelled"
      },
      "geometry": {
        "type": "LineString",
        "coordinates": [[-73.562983,45.520168],[-73.563290,45.519646],[-73.563443,45.519403],
                        [-73.563711,45.518907],[-73.564005,45.518413],[-73.564260,45.518011],
                        [-73.564260,45.518012],[-73.564325,45.517909],[-73.564606,45.517404],
                        [-73.564648,45.517326],[-73.564797,45.517053],[-73.564798,45.5170389],
                        [-73.564779,45.517024],[-73.564313,45.516808],[-73.564315,45.516808],
                        [-73.564145,45.51673],[-73.563262,45.516308],[-73.561788,45.515616],
                        [-73.561123,45.515301],[-73.560701,45.515094],[-73.559855,45.514708],
                        [-73.559841,45.514701],[-73.559689,45.514627],[-73.559087,45.51433],
                        [-73.558036,45.513853],[-73.557654,45.513685],[-73.557486,45.51361],
                        [-73.557346,45.513539],[-73.556166,45.512999],[-73.555046,45.512501]]
      }
    },

   {
      "type": "Feature",
      "properties": {
        "direction": "outbound",
        "color": "#1F3BFF",
        "branch": "east_temporary"
      },
      "geometry": {
        "type": "LineString",
        "coordinates": [[-73.557278,45.513561],[-73.556962,45.513903],[-73.55654,45.514371],
                        [-73.555544,45.515488],[-73.555135,45.51592],[-73.554712,45.516388],
                        [-73.554705,45.516407],[-73.554727,45.516422],[-73.554894,45.516494],
                         [-73.555283,45.516666],[-73.556946,45.517401],[-73.556946,45.5174],
                         [-73.557071,45.517455],[-73.558418,45.518077],[-73.55853,45.518129],
                         [-73.560646,45.51911],[-73.560759,45.519163],[-73.562764,45.520098],
                         [-73.5629154,45.5201686]]
      }
    },
    {
      "type": "Feature",
      "properties": {
        "direction": "inbound",
        "color": "#7498FF",
        "branch": "west_temporary"
      },
      "geometry": {
        "type": "LineString",
        "coordinates": [[-73.562983,45.520168],[-73.5629851,45.5201514],
                         [-73.56297,45.520141],[-73.560892,45.519171],[-73.560793,45.519126],
                         [-73.558721,45.518164],[-73.558565,45.518092],[-73.557251,45.517485],
                         [-73.557251,45.517484],[-73.557105,45.517417],[-73.555109,45.516535],
                         [-73.554928,45.516455],[-73.554762,45.516383],[-73.553481,45.515799],
                         [-73.552439,45.515329],[-73.552881,45.514853],[-73.553252,45.514448],
                         [-73.554301,45.513339],[-73.55471,45.51288],[-73.555029,45.51252],
                         [-73.555046,45.512501]]
      }
    },

    {
      "type": "Feature",
      "properties": {
        "name": "Saint-Antoine / de la Place-d'Armes (53969)",
        "direction": "outbound"
      },
      "geometry": {
        "type": "Point",
        "coordinates": [
          -73.5583,
          45.505515
        ]
      }
    },
    {
      "type": "Feature",
      "properties": {
        "name": "Station Champ-de-Mars (St-Antoine / Gosford) (53674)",
        "direction": "outbound"
      },
      "geometry": {
        "type": "Point",
        "coordinates": [
          -73.5554,
          45.509293
        ]
      }
    },
    {
      "type": "Feature",
      "properties": {
        "name": "Atateken / De Maisonneuve (52872)",
        "direction": "outbound",
        "branch": "east_temporary"
      },
      "geometry": {
        "type": "Point",
        "coordinates": [
          -73.55837,
          45.518126
        ]
      }
    },
    {
      "type": "Feature",
      "properties": {
        "name": "Ontario / Atateken (52731)",
        "direction": "outbound",
        "branch": "east_cancelled"
      },
      "geometry": {
        "type": "Point",
        "coordinates": [
          -73.562947,
          45.520005
        ]
      }
    },
    {
      "type": "Feature",
      "properties": {
        "name": "Atateken / Ontario (52728)",
        "direction": "outbound",
        "branch": "east_temporary"
      },
      "geometry": {
        "type": "Point",
        "coordinates": [
          -73.562735,
          45.520128
        ]
      }
    },
    {
      "type": "Feature",
      "properties": {
        "name": "Berri / Viger (52976)",
        "direction": "outbound"
      },
      "geometry": {
        "type": "Point",
        "coordinates": [
          -73.554771,
          45.51253
        ]
      }
    },
    {
      "type": "Feature",
      "properties": {
        "name": "Berri / René-Lévesque (52904)",
        "direction": "outbound"
      },
      "geometry": {
        "type": "Point",
        "coordinates": [
          -73.556972,
          45.513505
        ]
      }
    },
    {
      "type": "Feature",
      "properties": {
        "name": "Station Berri-UQAM (61153)",
        "direction": "outbound",
        "branch": "east_cancelled"
      },
      "geometry": {
        "type": "Point",
        "coordinates": [
          -73.560191,
          45.514987
        ]
      }
    },
    {
      "type": "Feature",
      "properties": {
        "name": "Berri / Ontario (52662)",
        "direction": "outbound",
        "branch": "east_cancelled"
      },
      "geometry": {
        "type": "Point",
        "coordinates": [
          -73.564555,
          45.517045
        ]
      }
    },
    {
      "type": "Feature",
      "properties": {
        "name": "Ontario / de la Visitation (52763)",
        "direction": "outbound"
      },
      "geometry": {
        "type": "Point",
        "coordinates": [
          -73.561733,
          45.522066
        ]
      }
    },
    {
      "type": "Feature",
      "properties": {
        "name": "Berri / Ontario (52665)",
        "direction": "inbound",
        "branch": "west_cancelled"
      },
      "geometry": {
        "type": "Point",
        "coordinates": [
          -73.564353,
          45.516768
        ]
      }
    },
    {
      "type": "Feature",
      "properties": {
        "name": "Station Berri-UQAM (Berri / Ste-Catherine) (52844)",
        "direction": "inbound",
        "branch": "west_cancelled"
      },
      "geometry": {
        "type": "Point",
        "coordinates": [
          -73.559885,
          45.514657
        ]
      }
    },
    {
      "type": "Feature",
      "properties": {
        "name": "Berri / René-Lévesque (52906)",
        "direction": "inbound",
        "branch": "west_cancelled"
      },
      "geometry": {
        "type": "Point",
        "coordinates": [
          -73.557687,
          45.513648
        ]
      }
    },
    {
      "type": "Feature",
      "properties": {
        "name": "Ontario / Alexandre-DeSève (52809)",
        "direction": "outbound"
      },
      "geometry": {
        "type": "Point",
        "coordinates": [
          -73.560419,
          45.524177
        ]
      }
    },
    {
      "type": "Feature",
      "properties": {
        "name": "Ontario / Papineau (52843)",
        "direction": "outbound"
      },
      "geometry": {
        "type": "Point",
        "coordinates": [
          -73.559137,
          45.526113
        ]
      }
    },
    {
      "type": "Feature",
      "properties": {
        "name": "Ontario / De Lorimier (52897)",
        "direction": "outbound"
      },
      "geometry": {
        "type": "Point",
        "coordinates": [
          -73.557441,
          45.527916
        ]
      }
    },
    {
      "type": "Feature",
      "properties": {
        "name": "Ontario / Fullum (52965)",
        "direction": "outbound"
      },
      "geometry": {
        "type": "Point",
        "coordinates": [
          -73.555118,
          45.530308
        ]
      }
    },
    {
      "type": "Feature",
      "properties": {
        "name": "Station Frontenac (Ontario / du Havre) (53015)",
        "direction": "outbound"
      },
      "geometry": {
        "type": "Point",
        "coordinates": [
          -73.552246,
          45.533348
        ]
      }
    },
    {
      "type": "Feature",
      "properties": {
        "name": "Ontario / Bercy (53028)",
        "direction": "outbound"
      },
      "geometry": {
        "type": "Point",
        "coordinates": [
          -73.551441,
          45.534565
        ]
      }
    },
    {
      "type": "Feature",
      "properties": {
        "name": "Ontario / Wurtele (53059)",
        "direction": "outbound"
      },
      "geometry": {
        "type": "Point",
        "coordinates": [
          -73.550256,
          45.536349
        ]
      }
    },
    {
      "type": "Feature",
      "properties": {
        "name": "Ontario / Lespérance (61359)",
        "direction": "outbound"
      },
      "geometry": {
        "type": "Point",
        "coordinates": [
          -73.549448,
          45.537563
        ]
      }
    },
    {
      "type": "Feature",
      "properties": {
        "name": "Ontario / Préfontaine (54091)",
        "direction": "outbound"
      },
      "geometry": {
        "type": "Point",
        "coordinates": [
          -73.547856,
          45.540182
        ]
      }
    },
    {
      "type": "Feature",
      "properties": {
        "name": "Place des Tisserandes (Ontario / Saint-Germain) (53109)",
        "direction": "outbound"
      },
      "geometry": {
        "type": "Point",
        "coordinates": [
          -73.546974,
          45.54158
        ]
      }
    },
    {
      "type": "Feature",
      "properties": {
        "name": "Ontario / Aylwin (53123)",
        "direction": "outbound"
      },
      "geometry": {
        "type": "Point",
        "coordinates": [
          -73.545308,
          45.544167
        ]
      }
    },
    {
      "type": "Feature",
      "properties": {
        "name": "Ontario / Valois (53155)",
        "direction": "outbound"
      },
      "geometry": {
        "type": "Point",
        "coordinates": [
          -73.543343,
          45.547411
        ]
      }
    },
    {
      "type": "Feature",
      "properties": {
        "name": "Pie-IX / Ontario (61701)",
        "direction": "outbound"
      },
      "geometry": {
        "type": "Point",
        "coordinates": [
          -73.541681,
          45.550557
        ]
      }
    },
    {
      "type": "Feature",
      "properties": {
        "name": "Pie-IX / de Rouen (53125)",
        "direction": "outbound"
      },
      "geometry": {
        "type": "Point",
        "coordinates": [
          -73.544555,
          45.551481
        ]
      }
    },
    {
      "type": "Feature",
      "properties": {
        "name": "Pie-IX / Hochelaga (53085)",
        "direction": "outbound"
      },
      "geometry": {
        "type": "Point",
        "coordinates": [
          -73.547955,
          45.552574
        ]
      }
    },
    {
      "type": "Feature",
      "properties": {
        "name": "Station Pie-IX (Pie-IX / Pierre-De Coubertin) (53019)",
        "direction": "outbound"
      },
      "geometry": {
        "type": "Point",
        "coordinates": [
          -73.552579,
          45.554088
        ]
      }
    },
    {
      "type": "Feature",
      "properties": {
        "name": "Pie-IX / Sherbrooke (coin Nord-Est) (52950)",
        "direction": "outbound"
      },
      "geometry": {
        "type": "Point",
        "coordinates": [
          -73.555372,
          45.554977
        ]
      }
    },
    {
      "type": "Feature",
      "properties": {
        "name": "Pie-IX / du Mont-Royal (52831)",
        "direction": "outbound"
      },
      "geometry": {
        "type": "Point",
        "coordinates": [
          -73.558636,
          45.556003
        ]
      }
    },
    {
      "type": "Feature",
      "properties": {
        "name": "Pie-IX / Saint-Joseph (52702)",
        "direction": "outbound"
      },
      "geometry": {
        "type": "Point",
        "coordinates": [
          -73.562443,
          45.557218
        ]
      }
    },
    {
      "type": "Feature",
      "properties": {
        "name": "Pie-IX / Laurier (52594)",
        "direction": "outbound"
      },
      "geometry": {
        "type": "Point",
        "coordinates": [
          -73.565356,
          45.558149
        ]
      }
    },
    {
      "type": "Feature",
      "properties": {
        "name": "Pie-IX / Masson (52495)",
        "direction": "outbound"
      },
      "geometry": {
        "type": "Point",
        "coordinates": [
          -73.56825,
          45.559079
        ]
      }
    },
    {
      "type": "Feature",
      "properties": {
        "name": "Pie-IX / Dandurand (52401)",
        "direction": "outbound"
      },
      "geometry": {
        "type": "Point",
        "coordinates": [
          -73.570979,
          45.559962
        ]
      }
    },
    {
      "type": "Feature",
      "properties": {
        "name": "Pie-IX / Rosemont (52309)",
        "direction": "outbound"
      },
      "geometry": {
        "type": "Point",
        "coordinates": [
          -73.573511,
          45.560785
        ]
      }
    },
    {
      "type": "Feature",
      "properties": {
        "name": "Pie-IX / de Bellechasse (52241)",
        "direction": "outbound"
      },
      "geometry": {
        "type": "Point",
        "coordinates": [
          -73.575715,
          45.56147
        ]
      }
    },
    {
      "type": "Feature",
      "properties": {
        "name": "Pie-IX / Beaubien (52126)",
        "direction": "outbound"
      },
      "geometry": {
        "type": "Point",
        "coordinates": [
          -73.579444,
          45.562626
        ]
      }
    },
    {
      "type": "Feature",
      "properties": {
        "name": "Pie-IX / Saint-Zotique (52014)",
        "direction": "outbound"
      },
      "geometry": {
        "type": "Point",
        "coordinates": [
          -73.583211,
          45.563793
        ]
      }
    },
    {
      "type": "Feature",
      "properties": {
        "name": "Pie-IX / Bélanger (51910)",
        "direction": "outbound"
      },
      "geometry": {
        "type": "Point",
        "coordinates": [
          -73.586976,
          45.564961
        ]
      }
    },
    {
      "type": "Feature",
      "properties": {
        "name": "Pie-IX / Jean-Talon (51791)",
        "direction": "outbound"
      },
      "geometry": {
        "type": "Point",
        "coordinates": [
          -73.591106,
          45.566561
        ]
      }
    },
    {
      "type": "Feature",
      "properties": {
        "name": "Pie-IX / Everett (51735)",
        "direction": "outbound"
      },
      "geometry": {
        "type": "Point",
        "coordinates": [
          -73.593696,
          45.567686
        ]
      }
    },
    {
      "type": "Feature",
      "properties": {
        "name": "Pie-IX / Villeray (51656)",
        "direction": "outbound"
      },
      "geometry": {
        "type": "Point",
        "coordinates": [
          -73.5967,
          45.569015
        ]
      }
    },
    {
      "type": "Feature",
      "properties": {
        "name": "Pie-IX / Jarry (51529)",
        "direction": "outbound"
      },
      "geometry": {
        "type": "Point",
        "coordinates": [
          -73.602366,
          45.57153
        ]
      }
    },
    {
      "type": "Feature",
      "properties": {
        "name": "Pie-IX / D'Hérelle (51479)",
        "direction": "outbound"
      },
      "geometry": {
        "type": "Point",
        "coordinates": [
          -73.60509,
          45.572723
        ]
      }
    },
    {
      "type": "Feature",
      "properties": {
        "name": "Pie-IX / Jean-Rivard (51424)",
        "direction": "outbound"
      },
      "geometry": {
        "type": "Point",
        "coordinates": [
          -73.60778,
          45.573909
        ]
      }
    },
    {
      "type": "Feature",
      "properties": {
        "name": "Pie-IX / Robert (51366)",
        "direction": "outbound"
      },
      "geometry": {
        "type": "Point",
        "coordinates": [
          -73.610496,
          45.575107
        ]
      }
    },
    {
      "type": "Feature",
      "properties": {
        "name": "Pie-IX / Denis-Papin (51298)",
        "direction": "outbound"
      },
      "geometry": {
        "type": "Point",
        "coordinates": [
          -73.613762,
          45.576543
        ]
      }
    },
    {
      "type": "Feature",
      "properties": {
        "name": "Pie-IX / 39e Rue (51245)",
        "direction": "outbound"
      },
      "geometry": {
        "type": "Point",
        "coordinates": [
          -73.616598,
          45.577796
        ]
      }
    },
    {
      "type": "Feature",
      "properties": {
        "name": "Pie-IX / 43e Rue (51184)",
        "direction": "outbound"
      },
      "geometry": {
        "type": "Point",
        "coordinates": [
          -73.619269,
          45.578972
        ]
      }
    },
    {
      "type": "Feature",
      "properties": {
        "name": "Pie-IX / 48e Rue (51100)",
        "direction": "outbound"
      },
      "geometry": {
        "type": "Point",
        "coordinates": [
          -73.622653,
          45.580461
        ]
      }
    },
    {
      "type": "Feature",
      "properties": {
        "name": "Pie-IX / 53e Rue (51037)",
        "direction": "outbound"
      },
      "geometry": {
        "type": "Point",
        "coordinates": [
          -73.626075,
          45.581982
        ]
      }
    },
    {
      "type": "Feature",
      "properties": {
        "name": "Pie-IX / 56e Rue (54189)",
        "direction": "outbound"
      },
      "geometry": {
        "type": "Point",
        "coordinates": [
          -73.627857,
          45.582753
        ]
      }
    },
    {
      "type": "Feature",
      "properties": {
        "name": "Pie-IX / Industriel (55181)",
        "direction": "outbound"
      },
      "geometry": {
        "type": "Point",
        "coordinates": [
          -73.630296,
          45.584414
        ]
      }
    },
    {
      "type": "Feature",
      "properties": {
        "name": "Pie-IX / Majeau (55157)",
        "direction": "outbound"
      },
      "geometry": {
        "type": "Point",
        "coordinates": [
          -73.631509,
          45.585562
        ]
      }
    },
    {
      "type": "Feature",
      "properties": {
        "name": "Pie-IX / Forest (55132)",
        "direction": "outbound"
      },
      "geometry": {
        "type": "Point",
        "coordinates": [
          -73.633284,
          45.58724
        ]
      }
    },
    {
      "type": "Feature",
      "properties": {
        "name": "Pie-IX / d'Amiens (55112)",
        "direction": "outbound"
      },
      "geometry": {
        "type": "Point",
        "coordinates": [
          -73.635257,
          45.589102
        ]
      }
    },
    {
      "type": "Feature",
      "properties": {
        "name": "Pie-IX / de Castille (55096)",
        "direction": "outbound"
      },
      "geometry": {
        "type": "Point",
        "coordinates": [
          -73.637182,
          45.590923
        ]
      }
    },
    {
      "type": "Feature",
      "properties": {
        "name": "Pie-IX / de Charleroi (55084)",
        "direction": "outbound"
      },
      "geometry": {
        "type": "Point",
        "coordinates": [
          -73.638989,
          45.592633
        ]
      }
    },
    {
      "type": "Feature",
      "properties": {
        "name": "Pie-IX / Amos (61543)",
        "direction": "outbound"
      },
      "geometry": {
        "type": "Point",
        "coordinates": [
          -73.641402,
          45.594972
        ]
      }
    },
    {
      "type": "Feature",
      "properties": {
        "name": "Carrefour Henri-Bourassa / Pie-IX (61545)",
        "direction": "outbound"
      },
      "geometry": {
        "type": "Point",
        "coordinates": [
          -73.642408,
          45.596821
        ]
      }
    },
    {
      "type": "Feature",
      "properties": {
        "name": "Carrefour Henri-Bourassa / Pie-IX (61545)",
        "direction": "inbound"
      },
      "geometry": {
        "type": "Point",
        "coordinates": [
          -73.642408,
          45.596821
        ]
      }
    },
    {
      "type": "Feature",
      "properties": {
        "name": "Pie-IX / Parc Pilon (59446)",
        "direction": "inbound"
      },
      "geometry": {
        "type": "Point",
        "coordinates": [
          -73.641414,
          45.594562
        ]
      }
    },
    {
      "type": "Feature",
      "properties": {
        "name": "Pie-IX / Martial (55085)",
        "direction": "inbound"
      },
      "geometry": {
        "type": "Point",
        "coordinates": [
          -73.638477,
          45.591781
        ]
      }
    },
    {
      "type": "Feature",
      "properties": {
        "name": "Pie-IX / Monselet (55103)",
        "direction": "inbound"
      },
      "geometry": {
        "type": "Point",
        "coordinates": [
          -73.636814,
          45.590206
        ]
      }
    },
    {
      "type": "Feature",
      "properties": {
        "name": "Pie-IX / Prieur (55120)",
        "direction": "inbound"
      },
      "geometry": {
        "type": "Point",
        "coordinates": [
          -73.634895,
          45.588394
        ]
      }
    },
    {
      "type": "Feature",
      "properties": {
        "name": "Pie-IX / Forest (55134)",
        "direction": "inbound"
      },
      "geometry": {
        "type": "Point",
        "coordinates": [
          -73.633833,
          45.58739
        ]
      }
    },
    {
      "type": "Feature",
      "properties": {
        "name": "Pie-IX / Larin (55309)",
        "direction": "inbound"
      },
      "geometry": {
        "type": "Point",
        "coordinates": [
          -73.631594,
          45.585271
        ]
      }
    },
    {
      "type": "Feature",
      "properties": {
        "name": "Pie-IX / Industriel (55179)",
        "direction": "inbound"
      },
      "geometry": {
        "type": "Point",
        "coordinates": [
          -73.630119,
          45.583877
        ]
      }
    },
    {
      "type": "Feature",
      "properties": {
        "name": "Pie-IX / 55e Rue (50993)",
        "direction": "inbound"
      },
      "geometry": {
        "type": "Point",
        "coordinates": [
          -73.627869,
          45.58251
        ]
      }
    },
    {
      "type": "Feature",
      "properties": {
        "name": "Pie-IX / des Grandes-Prairies (51036)",
        "direction": "inbound"
      },
      "geometry": {
        "type": "Point",
        "coordinates": [
          -73.625296,
          45.581339
        ]
      }
    },
    {
      "type": "Feature",
      "properties": {
        "name": "Pie-IX / 46e Rue (51115)",
        "direction": "inbound"
      },
      "geometry": {
        "type": "Point",
        "coordinates": [
          -73.621721,
          45.579807
        ]
      }
    },
    {
      "type": "Feature",
      "properties": {
        "name": "Pie-IX / 43e Rue (51185)",
        "direction": "inbound"
      },
      "geometry": {
        "type": "Point",
        "coordinates": [
          -73.619674,
          45.578904
        ]
      }
    },
    {
      "type": "Feature",
      "properties": {
        "name": "Pie-IX / 39e Rue (51246)",
        "direction": "inbound"
      },
      "geometry": {
        "type": "Point",
        "coordinates": [
          -73.617069,
          45.577739
        ]
      }
    },
    {
      "type": "Feature",
      "properties": {
        "name": "Pie-IX / Denis-Papin (51299)",
        "direction": "inbound"
      },
      "geometry": {
        "type": "Point",
        "coordinates": [
          -73.614534,
          45.576602
        ]
      }
    },
    {
      "type": "Feature",
      "properties": {
        "name": "Pie-IX / Robert (51367)",
        "direction": "inbound"
      },
      "geometry": {
        "type": "Point",
        "coordinates": [
          -73.610928,
          45.575049
        ]
      }
    },
    {
      "type": "Feature",
      "properties": {
        "name": "Pie-IX / Jean-Rivard (51425)",
        "direction": "inbound"
      },
      "geometry": {
        "type": "Point",
        "coordinates": [
          -73.608309,
          45.573896
        ]
      }
    },
    {
      "type": "Feature",
      "properties": {
        "name": "Pie-IX / D'Hérelle (51480)",
        "direction": "inbound"
      },
      "geometry": {
        "type": "Point",
        "coordinates": [
          -73.605591,
          45.572697
        ]
      }
    },
    {
      "type": "Feature",
      "properties": {
        "name": "Pie-IX / Jarry (51531)",
        "direction": "inbound"
      },
      "geometry": {
        "type": "Point",
        "coordinates": [
          -73.603407,
          45.571704
        ]
      }
    },
    {
      "type": "Feature",
      "properties": {
        "name": "Pie-IX / Villeray (51658)",
        "direction": "inbound"
      },
      "geometry": {
        "type": "Point",
        "coordinates": [
          -73.597114,
          45.568964
        ]
      }
    },
    {
      "type": "Feature",
      "properties": {
        "name": "Pie-IX / Everett (51736)",
        "direction": "inbound"
      },
      "geometry": {
        "type": "Point",
        "coordinates": [
          -73.594132,
          45.567646
        ]
      }
    },
    {
      "type": "Feature",
      "properties": {
        "name": "Pie-IX / Jean-Talon (51793)",
        "direction": "inbound"
      },
      "geometry": {
        "type": "Point",
        "coordinates": [
          -73.591578,
          45.566517
        ]
      }
    },
    {
      "type": "Feature",
      "properties": {
        "name": "Pie-IX / Bélanger (51912)",
        "direction": "inbound"
      },
      "geometry": {
        "type": "Point",
        "coordinates": [
          -73.587589,
          45.564913
        ]
      }
    },
    {
      "type": "Feature",
      "properties": {
        "name": "Pie-IX / Saint-Zotique (52015)",
        "direction": "inbound"
      },
      "geometry": {
        "type": "Point",
        "coordinates": [
          -73.583769,
          45.563736
        ]
      }
    },
    {
      "type": "Feature",
      "properties": {
        "name": "Pie-IX / Beaubien (52128)",
        "direction": "inbound"
      },
      "geometry": {
        "type": "Point",
        "coordinates": [
          -73.57996,
          45.562558
        ]
      }
    },
    {
      "type": "Feature",
      "properties": {
        "name": "Pie-IX / de Bellechasse (52242)",
        "direction": "inbound"
      },
      "geometry": {
        "type": "Point",
        "coordinates": [
          -73.576252,
          45.561401
        ]
      }
    },
    {
      "type": "Feature",
      "properties": {
        "name": "Pie-IX / Rosemont (52311)",
        "direction": "inbound"
      },
      "geometry": {
        "type": "Point",
        "coordinates": [
          -73.574168,
          45.560761
        ]
      }
    },
    {
      "type": "Feature",
      "properties": {
        "name": "Pie-IX / Dandurand (52402)",
        "direction": "inbound"
      },
      "geometry": {
        "type": "Point",
        "coordinates": [
          -73.57139,
          45.559868
        ]
      }
    },
    {
      "type": "Feature",
      "properties": {
        "name": "Pie-IX / Masson (52496)",
        "direction": "inbound"
      },
      "geometry": {
        "type": "Point",
        "coordinates": [
          -73.568688,
          45.558993
        ]
      }
    },
    {
      "type": "Feature",
      "properties": {
        "name": "Pie-IX / Laurier (52596)",
        "direction": "inbound"
      },
      "geometry": {
        "type": "Point",
        "coordinates": [
          -73.565822,
          45.558067
        ]
      }
    },
    {
      "type": "Feature",
      "properties": {
        "name": "Pie-IX / Saint-Joseph (52703)",
        "direction": "inbound"
      },
      "geometry": {
        "type": "Point",
        "coordinates": [
          -73.562975,
          45.557156
        ]
      }
    },
    {
      "type": "Feature",
      "properties": {
        "name": "Pie-IX / du Mont-Royal (52832)",
        "direction": "inbound"
      },
      "geometry": {
        "type": "Point",
        "coordinates": [
          -73.559091,
          45.555916
        ]
      }
    },
    {
      "type": "Feature",
      "properties": {
        "name": "Pie-IX / Sherbrooke (52951)",
        "direction": "inbound"
      },
      "geometry": {
        "type": "Point",
        "coordinates": [
          -73.555164,
          45.554663
        ]
      }
    },
    {
      "type": "Feature",
      "properties": {
        "name": "Station Pie-IX (Pie-IX / Pierre-De Coubertin) (53018)",
        "direction": "inbound"
      },
      "geometry": {
        "type": "Point",
        "coordinates": [
          -73.551944,
          45.553626
        ]
      }
    },
    {
      "type": "Feature",
      "properties": {
        "name": "Pie-IX / Hochelaga (53087)",
        "direction": "inbound"
      },
      "geometry": {
        "type": "Point",
        "coordinates": [
          -73.548515,
          45.552525
        ]
      }
    },
    {
      "type": "Feature",
      "properties": {
        "name": "Pie-IX / de Rouen (53126)",
        "direction": "inbound"
      },
      "geometry": {
        "type": "Point",
        "coordinates": [
          -73.544999,
          45.551397
        ]
      }
    },
    {
      "type": "Feature",
      "properties": {
        "name": "Pie-IX / Ontario (53190)",
        "direction": "inbound"
      },
      "geometry": {
        "type": "Point",
        "coordinates": [
          -73.541435,
          45.550249
        ]
      }
    },
    {
      "type": "Feature",
      "properties": {
        "name": "Place Simon-Valois (Ontario / Valois) (53154)",
        "direction": "inbound"
      },
      "geometry": {
        "type": "Point",
        "coordinates": [
          -73.543565,
          45.547281
        ]
      }
    },
    {
      "type": "Feature",
      "properties": {
        "name": "Ontario / Aylwin (53122)",
        "direction": "inbound"
      },
      "geometry": {
        "type": "Point",
        "coordinates": [
          -73.545341,
          45.544393
        ]
      }
    },
    {
      "type": "Feature",
      "properties": {
        "name": "Ontario / Saint-Germain (53108)",
        "direction": "inbound"
      },
      "geometry": {
        "type": "Point",
        "coordinates": [
          -73.546964,
          45.541817
        ]
      }
    },
    {
      "type": "Feature",
      "properties": {
        "name": "Ontario / Moreau (53089)",
        "direction": "inbound"
      },
      "geometry": {
        "type": "Point",
        "coordinates": [
          -73.548359,
          45.539713
        ]
      }
    },
    {
      "type": "Feature",
      "properties": {
        "name": "Ontario / Lespérance (61355)",
        "direction": "inbound"
      },
      "geometry": {
        "type": "Point",
        "coordinates": [
          -73.549472,
          45.537759
        ]
      }
    },
    {
      "type": "Feature",
      "properties": {
        "name": "Ontario / Wurtele (53058)",
        "direction": "inbound"
      },
      "geometry": {
        "type": "Point",
        "coordinates": [
          -73.550277,
          45.536571
        ]
      }
    },
    {
      "type": "Feature",
      "properties": {
        "name": "Ontario / Bercy (53027)",
        "direction": "inbound"
      },
      "geometry": {
        "type": "Point",
        "coordinates": [
          -73.551462,
          45.534796
        ]
      }
    },
    {
      "type": "Feature",
      "properties": {
        "name": "Station Frontenac (Ontario / Frontenac) (53007)",
        "direction": "inbound"
      },
      "geometry": {
        "type": "Point",
        "coordinates": [
          -73.552639,
          45.533139
        ]
      }
    },
    {
      "type": "Feature",
      "properties": {
        "name": "Ontario / Fullum (52964)",
        "direction": "inbound"
      },
      "geometry": {
        "type": "Point",
        "coordinates": [
          -73.555076,
          45.530539
        ]
      }
    },
    {
      "type": "Feature",
      "properties": {
        "name": "Ontario / De Lorimier (52896)",
        "direction": "inbound"
      },
      "geometry": {
        "type": "Point",
        "coordinates": [
          -73.557316,
          45.52823
        ]
      }
    },
    {
      "type": "Feature",
      "properties": {
        "name": "Ontario / Papineau (52841)",
        "direction": "inbound"
      },
      "geometry": {
        "type": "Point",
        "coordinates": [
          -73.559403,
          45.526016
        ]
      }
    },
    {
      "type": "Feature",
      "properties": {
        "name": "Ontario / Alexandre-DeSève (52808)",
        "direction": "inbound"
      },
      "geometry": {
        "type": "Point",
        "coordinates": [
          -73.560409,
          45.524444
        ]
      }
    },
    {
      "type": "Feature",
      "properties": {
        "name": "Ontario / de la Visitation (52762)",
        "direction": "inbound"
      },
      "geometry": {
        "type": "Point",
        "coordinates": [
          -73.561749,
          45.522302
        ]
      }
    },
    {
      "type": "Feature",
      "properties": {
        "name": "Ontario / Atateken (52729)",
        "direction": "inbound"
      },
      "geometry": {
        "type": "Point",
        "coordinates": [
          -73.562919,
          45.52032
        ]
      }
    },
    {
      "type": "Feature",
      "properties": {
        "name": "Atateken / De Maisonneuve (52874)",
        "direction": "inbound",
        "branch": "west_temporary"
      },
      "geometry": {
        "type": "Point",
        "coordinates": [
          -73.55873,
          45.518154
        ]
      }
    },
    {
      "type": "Feature",
      "properties": {
        "name": "Atateken / René-Lévesque (52981)",
        "direction": "inbound",
        "branch": "west_temporary"
      },
      "geometry": {
        "type": "Point",
        "coordinates": [
          -73.555136,
          45.516505
        ]
      }
    },
    {
      "type": "Feature",
      "properties": {
        "name": "Viger / Saint-Denis (CHUM) (53675)",
        "direction": "inbound"
      },
      "geometry": {
        "type": "Point",
        "coordinates": [
          -73.555537,
          45.512023
        ]
      }
    },
    {
      "type": "Feature",
      "properties": {
        "name": "Viger / de l'Hôtel-de-Ville (53692)",
        "direction": "inbound"
      },
      "geometry": {
        "type": "Point",
        "coordinates": [
          -73.557342,
          45.509639
        ]
      }
    },
    {
      "type": "Feature",
      "properties": {
        "name": "Saint-Antoine / de la Place-d'Armes (53969)",
        "direction": "inbound"
      },
      "geometry": {
        "type": "Point",
        "coordinates": [
          -73.5583,
          45.505515
        ]
      }
    }
