<!-- Ligne 369 entre Lionel-Groulx et Guy-Concordia -->
 == NORTHBOUND
[-73.580807,45.482244],[-73.581108,45.482475],[-73.5814,45.482697],
                         [-73.580642,45.483109],[-73.580336,45.483316],[-73.579915,45.483558],
                         [-73.579593,45.483748],[-73.579532,45.483793],[-73.579457,45.483828],
                         [-73.579441,45.483842],[-73.579443,45.483861],[-73.579841,45.484499],
                         [-73.580033,45.484814],[-73.58056,45.485643],[-73.581433,45.486795],
                         [-73.581627,45.487013],[-73.581821,45.487186],[-73.582231,45.487501],
                         [-73.582937,45.488064],[-73.582451,45.488196],[-73.582012,45.488351],
                         [-73.581549,45.488568],[-73.581473,45.488604],[-73.580666,45.489001],
                         [-73.580116,45.489289],[-73.579234,45.489731],[-73.578502,45.490138],
                         [-73.578214,45.49036],[-73.578213,45.49036],[-73.577936,45.490574],
                         [-73.577449,45.491106],[-73.576874,45.491692],[-73.576552,45.492065],
    {
      "type": "Feature",
      "properties": {
        "name": "Station Lionel-Groulx (61336)",
        "direction": "outbound"
      },
      "geometry": {
        "type": "Point",
        "coordinates": [
          -73.580781,
          45.482262
        ]
      }
    },
    {
      "type": "Feature",
      "properties": {
        "name": "Atwater / Saint-Antoine (56303)",
        "direction": "outbound"
      },
      "geometry": {
        "type": "Point",
        "coordinates": [
          -73.580447,
          45.485522
        ]
      }
    },
    {
      "type": "Feature",
      "properties": {
        "name": "René-Lévesque / du Fort (52227)",
        "direction": "outbound"
      },
      "geometry": {
        "type": "Point",
        "coordinates": [
          -73.578173,
          45.490334
        ]
      }
    },
    {
      "type": "Feature",
      "properties": {
        "name": "Atwater / du Souvenir (52085)",
        "direction": "outbound"
      },
      "geometry": {
        "type": "Point",
        "coordinates": [
          -73.582399,
          45.487664
        ]
      }
    },

 == SOUTHBOUND
[-73.577153,45.492581],[-73.57663,45.492294],[-73.577652,45.491218],
                         [-73.578186,45.490662],[-73.578721,45.490259],[-73.579373,45.489879],
                         [-73.579373,45.489878],[-73.57946,45.489828],[-73.580276,45.489405],
                         [-73.580711,45.489185],[-73.580826,45.489126],[-73.581683,45.488684],
                         [-73.582064,45.488514],[-73.582406,45.48838],[-73.583111,45.488181],
                         [-73.583254,45.488117],[-73.583271,45.488097],[-73.58326,45.488075],
                         [-73.583159,45.488004],[-73.582147,45.487186],[-73.58193,45.487025],
                         [-73.581793,45.486885],[-73.581486,45.486499],[-73.581127,45.486031],
                         [-73.580757,45.485519],[-73.580501,45.485143],[-73.579654,45.483758],
                         [-73.57918,45.482994],[-73.578975,45.482625],[-73.578827,45.4824],
                         [-73.580049,45.481678],[-73.580468,45.481985]
    {
      "type": "Feature",
      "properties": {
        "name": "Station Lionel-Groulx (61339)",
        "direction": "inbound"
      },
      "geometry": {
        "type": "Point",
        "coordinates": [
          -73.580436,
          45.482006
        ]
      }
    },
    {
      "type": "Feature",
      "properties": {
        "name": "René-Lévesque / Seymour (52198)",
        "direction": "inbound"
      },
      "geometry": {
        "type": "Point",
        "coordinates": [
          -73.579385,
          45.489889
        ]
      }
    },
    {
      "type": "Feature",
      "properties": {
        "name": "Atwater / Saint-Antoine (56304)",
        "direction": "inbound"
      },
      "geometry": {
        "type": "Point",
        "coordinates": [
          -73.580821,
          45.485585
        ]
      }
    },
    {
      "type": "Feature",
      "properties": {
        "name": "René-Lévesque / Lambert-Closse (––)",
        "direction": "inbound"
      },
      "geometry": {
        "type": "Point",
        "coordinates": [
          -73.582248,
          45.488485
        ]
      }
    },
