<!-- Part of 376-O that uses Cote-de-Liesse -->

{
  "type": "FeatureCollection",
  "features": [

    {
      "type": "Feature",
      "properties": {
        "direction": "inbound"
      },
      "geometry": {
        "type": "LineString",
        "coordinates": [[-73.678228,45.49572],[-73.678694,45.495482],
                         [-73.67884,45.49536],[-73.678944,45.495232],[-73.678945,45.49523],
                         [-73.678948,45.495223],[-73.678986,45.49505],[-73.678998,45.494876],
                         [-73.678959,45.494709],[-73.678855,45.4945],[-73.678851,45.494495],
                         [-73.678848,45.494492],[-73.678726,45.494381],[-73.678663,45.494196],
                         [-73.678612,45.494073],[-73.678611,45.493971],[-73.678622,45.493861],
                         [-73.678711,45.49369],[-73.678845,45.493535],[-73.679099,45.493366],
                         [-73.679815,45.492752],[-73.680372,45.492448],[-73.680821,45.492148],
                         [-73.681532,45.491633],[-73.681813,45.49143],[-73.682081,45.491276],
                         [-73.682411,45.491106],[-73.682767,45.490953],[-73.683212,45.4908],
                         [-73.684298,45.490429],[-73.685257,45.490077],[-73.686062,45.489806],
                         [-73.686264,45.489732],[-73.686384,45.489687],[-73.686795,45.489497],
                         [-73.687271,45.489242],[-73.687759,45.488898],[-73.688933,45.487996],
                         [-73.689287,45.487728],[-73.689859,45.487296],[-73.692783,45.489193],
                         [-73.6929803,45.4893212],[-73.6918169,45.4902157],[-73.6918086,45.4902301],
                         [-73.6918193,45.4902446],[-73.694536,45.491991],[-73.694546,45.492001],
                         [-73.695792,45.492817],[-73.696548,45.493285],[-73.6968958,45.4936053],
                         [-73.6971131,45.4938704],[-73.6971721,45.4941486],[-73.6970648,45.4944044],
                         [-73.6968449,45.4945999],[-73.6965069,45.4947315],[-73.6961421,45.4947578],
                         [-73.6957934,45.4946977],[-73.6954984,45.4945435],[-73.6953214,45.4943367],
                         [-73.6952624,45.494111],[-73.6953214,45.4938817],[-73.6955199,45.4936485],
                         [-73.6958256,45.4934831],[-73.697164,45.492955],[-73.699539,45.492213],
                         [-73.700524,45.49196],[-73.700844,45.491851],[-73.702254,45.491396]]
      }
    },

    {
      "type": "Feature",
      "properties": {
        "name": "Cavendish / Côte-de-Liesse (55600)",
        "direction": "outbound"
      },
      "geometry": {
        "type": "Point",
        "coordinates": [-73.688077,45.487588]
      }
    },
    {
      "type": "Feature",
      "properties": {
        "name": "Passerelle Isabey-Darnley (Côte-de-Liesse/Isabey) (55655)",
        "direction": "inbound"
      },
      "geometry": {
        "type": "Point",
        "coordinates": [
          -73.681548,
          45.491644
        ]
      }
    },
    {
      "type": "Feature",
      "properties": {
        "name": "Côte-de-Liesse / No 6015 (55855)",
        "direction": "inbound"
      },
      "geometry": {
        "type": "Point",
        "coordinates": [
          -73.686274,
          45.489746
        ]
      }
    },
    {
      "type": "Feature",
      "properties": {
        "name": "Côte-de-Liesse / Cavendish (55602)",
        "direction": "inbound"
      },
      "geometry": {
        "type": "Point",
        "coordinates": [
          -73.689302,
          45.487738
        ]
      }
    },
    {
      "type": "Feature",
      "properties": {
        "name": "Migneron / Griffith (62018)",
        "direction": "inbound"
      },
      "geometry": {
        "type": "Point",
        "coordinates": [
          -73.692747,
          45.48922
        ]
      }
    },    {
      "type": "Feature",
      "properties": {
        "name": "Passerelle Isabey-Darnley (Côte-de-Liesse/Isabey) (55655)",
        "direction": "inbound"
      },
      "geometry": {
        "type": "Point",
        "coordinates": [
          -73.681548,
          45.491644
        ]
      }
    },
    {
      "type": "Feature",
      "properties": {
        "name": "Côte-de-Liesse / No 6015 (55855)",
        "direction": "inbound"
      },
      "geometry": {
        "type": "Point",
        "coordinates": [
          -73.686274,
          45.489746
        ]
      }
    },
    {
      "type": "Feature",
      "properties": {
        "name": "Côte-de-Liesse / Cavendish (55602)",
        "direction": "inbound"
      },
      "geometry": {
        "type": "Point",
        "coordinates": [
          -73.689302,
          45.487738
        ]
      }
    },
    {
      "type": "Feature",
      "properties": {
        "name": "Migneron / Griffith (62018)",
        "direction": "inbound"
      },
      "geometry": {
        "type": "Point",
        "coordinates": [
          -73.692747,
          45.48922
        ]
      }
    },
    {
      "type": "Feature",
      "properties": {
        "name": "Dalton / Côte-de-Liesse (55621)",
        "direction": "outbound"
      },
      "geometry": {
        "type": "Point",
        "coordinates": [
          -73.685054,
          45.489376
        ]
      }
    }
  ]
}
