{
  "type": "FeatureCollection",
  "features": [

    {
      "type": "Feature",
      "properties": {
        "route": "350",
        "variant": "current",
        "direction": "all",
        "branch": "current",
        "stops": []
      },
      "geometry": {
        "type": "MultiLineString",
        "coordinates": [
                       [[-73.647981,45.4255],[-73.647982,45.425527],[-73.647997,45.425575],
                        [-73.648076,45.425687],[-73.648179,45.425787],[-73.648199,45.425804],
                        [-73.648217,45.425801],[-73.64906,45.425494],[-73.649289,45.425412],
                        [-73.649749,45.42525],[-73.649761,45.425243],[-73.649768,45.425234],
                        [-73.649946,45.424855],[-73.650073,45.424567],[-73.650403,45.423758],
                        [-73.650675,45.423226],[-73.650675,45.423225],[-73.650734,45.42311],
                        [-73.651064,45.422415],[-73.651343,45.421758],[-73.651648,45.420984],
                        [-73.651645,45.420965],[-73.651628,45.420951],[-73.651185,45.420813],
                        [-73.65026,45.420521],[-73.649534,45.420235],[-73.648957,45.419976],
                        [-73.648857,45.419931],[-73.648411,45.419726],[-73.648093,45.419547],
                        [-73.647658,45.419295],[-73.647402,45.419152],[-73.646354,45.418524],
                        [-73.645446,45.417949],[-73.644319,45.41724],[-73.644285,45.417235],
                        [-73.644263,45.417254],[-73.644111,45.417607],[-73.643991,45.417885],
                        [-73.643076,45.417685],[-73.641465,45.417318],[-73.640505,45.417094],
                        [-73.639989,45.417027],[-73.63962,45.416979],[-73.63861,45.416881],
                        [-73.638341,45.416854],[-73.637304,45.416783],[-73.636412,45.416808],
                        [-73.636412,45.416807],[-73.636253,45.416812],[-73.63606,45.41683],
                        [-73.635229,45.416921],[-73.634335,45.417021],[-73.634089,45.417048],
                        [-73.633849,45.417075],[-73.632927,45.417068],[-73.632073,45.416938],
                        [-73.632416,45.416165],[-73.632496,45.415985],[-73.632503,45.415964],
                        [-73.632491,45.415956],[-73.632268,45.415864],[-73.631764,45.415773],
                        [-73.631286,45.41572],[-73.630768,45.415729],[-73.630422,45.415775],
                        [-73.629969,45.415793],[-73.629259,45.41574],[-73.629257,45.41574],
                        [-73.628302,45.415624],[-73.627383,45.415437],[-73.627354,45.415439],
                        [-73.627347,45.415462],[-73.627344,45.415817],[-73.627338,45.416693],
                        [-73.627338,45.416835],[-73.626405,45.416827],[-73.625791,45.416828],
                        [-73.62574,45.416828],[-73.624667,45.41682],[-73.623554,45.41684],
                        [-73.622236,45.416859],[-73.621605,45.416932],[-73.621229,45.417026],
                        [-73.620159,45.417294],[-73.619469,45.417475],[-73.618814,45.417642],
                        [-73.61869,45.417674],[-73.617733,45.417926],[-73.617541,45.417981],
                        [-73.6173,45.418035],[-73.616673,45.418189],[-73.616417,45.418252],
                        [-73.615589,45.418478],[-73.613903,45.418875],[-73.613219,45.419054],
                        [-73.61311,45.419083],[-73.611637,45.419452],[-73.611451,45.419499],
                        [-73.61108,45.41958],[-73.608793,45.420149],[-73.608775,45.42016],
                        [-73.608781,45.420179],[-73.609236,45.420809],[-73.60932,45.420925],
                        [-73.609768,45.421537],[-73.610125,45.422011],[-73.610229,45.422148],
                        [-73.611408,45.423713],[-73.610589,45.423985],[-73.609849,45.424236],
                        [-73.609709,45.424283],[-73.609465,45.424355],[-73.609246,45.424446],
                        [-73.609104,45.424519],[-73.608936,45.424619],[-73.608743,45.424756],
                        [-73.608587,45.424893],[-73.608484,45.425011],[-73.608457,45.425048],
                        [-73.608457,45.425047],[-73.608357,45.425182],[-73.607898,45.425741],
                        [-73.60661,45.427425],[-73.606202,45.427939],[-73.606126,45.428038],
                        [-73.606118,45.428055],[-73.606132,45.428066],[-73.606529,45.428227],
                        [-73.607103,45.428487],[-73.607448,45.428655],[-73.607895,45.428873],
                        [-73.608176,45.429017],[-73.608353,45.42914],[-73.608505,45.429239],
                        [-73.608594,45.42931],[-73.609617,45.430056],[-73.609695,45.430119],
                        [-73.609734,45.430146],[-73.609864,45.430238],[-73.609973,45.430286],
                        [-73.610144,45.430322],[-73.610386,45.430369],[-73.610429,45.430377],
                        [-73.6107,45.430377],[-73.611159,45.430403],[-73.611502,45.430439],
                        [-73.612703,45.430638],[-73.612959,45.43068],[-73.613496,45.430752],
                        [-73.615208,45.431029],[-73.615874,45.431127],[-73.615901,45.431131],
                        [-73.616349,45.43119],[-73.616758,45.431208],[-73.616862,45.431216],
                        [-73.618508,45.431224],[-73.618512,45.431224],[-73.618908,45.431223],
                        [-73.621008,45.431252],[-73.621402,45.431257],[-73.623903,45.431245],
                        [-73.624184,45.431263],[-73.624529,45.431289],[-73.624679,45.431304],
                        [-73.624872,45.431325],[-73.625724,45.431503],[-73.626764,45.431762],
                        [-73.626914,45.431799],[-73.627796,45.432005],[-73.629154,45.432327],
                        [-73.629383,45.432381],[-73.629706,45.432426],[-73.62978,45.432431],
                        [-73.629493,45.432618],[-73.62921,45.432819],[-73.628711,45.433298],
                        [-73.628408,45.43358],[-73.625481,45.436291],[-73.625319,45.436442],
                        [-73.623958,45.437704],[-73.623609,45.438028],[-73.622401,45.439146],
                        [-73.62213,45.439397],[-73.621739,45.439664],[-73.621281,45.439942],
                        [-73.620242,45.440534],[-73.620094,45.440618],[-73.620087,45.440622],
                        [-73.620083,45.440627],[-73.620074,45.44064],[-73.618804,45.441349],
                        [-73.618789,45.441367],[-73.618813,45.441385],[-73.618891,45.44142],
                        [-73.618993,45.441465],[-73.619377,45.441636],[-73.619487,45.441684],
                        [-73.619486,45.441684],[-73.622512,45.442991],[-73.625698,45.444401],
                        [-73.625719,45.444408],[-73.625731,45.444403],[-73.628831,45.442607],
                        [-73.628983,45.44252],[-73.631331,45.44359],[-73.63133,45.44359],
                        [-73.633684,45.444662],[-73.633748,45.444692],[-73.634324,45.444953],
                        [-73.634345,45.444961],[-73.634359,45.444958],[-73.63611,45.444317],
                        [-73.636276,45.444254],[-73.636295,45.444235],[-73.636272,45.444215],
                        [-73.634009,45.443166],[-73.633863,45.443003],[-73.63385,45.442843],
                        [-73.63413,45.442429],[-73.634156,45.442282],[-73.634156,45.442276],
                        [-73.634154,45.442273],[-73.63405,45.44209],[-73.63392,45.441981],
                        [-73.633907,45.441975],[-73.633892,45.441975],[-73.633777,45.442002],
                        [-73.633766,45.442006],[-73.633761,45.442013],[-73.633723,45.442094],
                        [-73.633721,45.442104],[-73.633727,45.442111],[-73.633751,45.442131],
                        [-73.633864,45.442225],[-73.633962,45.44237],[-73.633637,45.442839],
                        [-73.633633,45.442844],[-73.633634,45.442848],[-73.63366,45.443046],
                        [-73.63366,45.443052],[-73.633664,45.443055],[-73.633847,45.443246],
                        [-73.636029,45.444285],[-73.634637,45.444795],[-73.634338,45.444905],
                        [-73.633783,45.444654],[-73.63093,45.443355],[-73.628997,45.442474],
                        [-73.628976,45.44247],[-73.62896,45.442475],[-73.628476,45.442755],
                        [-73.625837,45.444284],[-73.625703,45.444361],[-73.622539,45.442961],
                        [-73.619921,45.441829],[-73.619404,45.441605],[-73.61902,45.441436],
                        [-73.618919,45.441391],[-73.618842,45.441355],[-73.618817,45.441344],
                        [-73.618804,45.441349],[-73.618472,45.441529],[-73.616863,45.442448],
                        [-73.614958,45.443549],[-73.614295,45.44401],[-73.614153,45.44411],
                        [-73.613884,45.444326],[-73.612111,45.445709],[-73.611944,45.445839],
                        [-73.611854,45.445912],[-73.610667,45.446849],[-73.609891,45.447468],
                        [-73.60989,45.447467],[-73.60968,45.447633],[-73.609286,45.447457],
                        [-73.608761,45.447206],[-73.608359,45.447051],[-73.607956,45.446969],
                        [-73.607643,45.446942],[-73.60741,45.446943],[-73.60691,45.446952],
                        [-73.606295,45.446989],[-73.605312,45.447061],[-73.60492,45.447071],
                        [-73.604654,45.447053],[-73.604524,45.447038],[-73.604534,45.446937],
                        [-73.604534,45.446933],[-73.604531,45.446928],[-73.604455,45.44682],
                        [-73.604402,45.446737],[-73.604253,45.44663],[-73.603998,45.446445],
                        [-73.603913,45.446416],[-73.603826,45.446415],[-73.603727,45.446445],
                        [-73.603671,45.446483],[-73.603546,45.446581],[-73.603224,45.446745],
                        [-73.603173,45.446809],[-73.602433,45.446695],[-73.601371,45.446534],
                        [-73.599437,45.446226],[-73.599236,45.446194],[-73.596409,45.445757],
                        [-73.596282,45.445738],[-73.593316,45.44529],[-73.592791,45.44521],
                        [-73.592612,45.445183],[-73.592593,45.445184],[-73.592575,45.445192],
                        [-73.592408,45.445329],[-73.592164,45.445627],[-73.592075,45.445716],
                        [-73.591845,45.44596],[-73.59136,45.446464],[-73.591353,45.446476],
                        [-73.591366,45.446492],[-73.591455,45.446581],[-73.591514,45.446657],
                        [-73.591649,45.447008],[-73.592103,45.44819],[-73.592143,45.448293],
                        [-73.593158,45.450974],[-73.593235,45.451171],[-73.593299,45.451369],
                        [-73.593319,45.451422],[-73.594263,45.453917],[-73.594313,45.45405],
                        [-73.594686,45.455058],[-73.594955,45.455769],[-73.59535,45.456801],
                        [-73.595382,45.456884],[-73.594481,45.45705],[-73.594139,45.457114],
                        [-73.593953,45.457123],[-73.593067,45.457093],[-73.59292,45.457088],
                        [-73.590748,45.457014],[-73.590592,45.457008],[-73.589774,45.456973],
                        [-73.589098,45.45695],[-73.588979,45.456947],[-73.588846,45.456956],
                        [-73.58874,45.456974],[-73.588737,45.456975],[-73.588728,45.456978],
                        [-73.588612,45.457033],[-73.588524,45.457087],[-73.588432,45.457118],
                        [-73.588315,45.457137],[-73.588149,45.457191],[-73.587813,45.457227],
                        [-73.585334,45.457128],[-73.585146,45.457121],[-73.58223,45.457024],
                        [-73.581802,45.457007],[-73.581783,45.457006],[-73.581218,45.456981],
                        [-73.581572,45.456142],[-73.582076,45.455319],[-73.582171,45.455162],
                        [-73.582615,45.454553],[-73.583177,45.453914],[-73.583457,45.453628],
                        [-73.5838,45.453304],[-73.583806,45.453281],[-73.583773,45.45327],
                        [-73.583685,45.453261],[-73.583585,45.453243],[-73.583306,45.453181],
                        [-73.582653,45.453001],[-73.582476,45.452963],[-73.582281,45.45292],
                        [-73.582061,45.452885],[-73.576836,45.45268],[-73.576637,45.452672],
                        [-73.572635,45.452527],[-73.572277,45.452513],[-73.572251,45.452516],
                        [-73.572244,45.452529],[-73.572193,45.45306],[-73.57213,45.453843],
                        [-73.572065,45.4546],[-73.572055,45.454717],[-73.572055,45.45477],
                        [-73.572042,45.454841],[-73.571979,45.455589],[-73.571924,45.456177],
                        [-73.571916,45.456264],[-73.571866,45.456876],[-73.571802,45.457461],
                        [-73.571752,45.458046],[-73.571702,45.458613],[-73.571642,45.459172],
                        [-73.571638,45.459207],[-73.571626,45.459432],[-73.57155,45.460314],
                        [-73.571475,45.461205],[-73.571409,45.461972],[-73.57141,45.461972],
                        [-73.571402,45.462069],[-73.56738,45.461902],[-73.567111,45.461884],
                        [-73.567086,45.461888],[-73.567077,45.461908],[-73.566989,45.462661],
                        [-73.566976,45.462781],[-73.566795,45.464803],[-73.566786,45.464897],
                        [-73.566584,45.467127],[-73.566508,45.467376],[-73.566458,45.46751],
                        [-73.566407,45.467618],[-73.566399,45.467633],[-73.566403,45.467637],
                        [-73.56648,45.467744],[-73.566889,45.468356],[-73.566999,45.468528],
                        [-73.567119,45.468716],[-73.567388,45.469138],[-73.567722,45.469669],
                        [-73.568114,45.470257],[-73.568196,45.47038],[-73.568516,45.470847],
                        [-73.569118,45.471792],[-73.569453,45.472287],[-73.569504,45.472359],
                        [-73.569515,45.47237],[-73.569547,45.472364],[-73.569647,45.472338],
                        [-73.569754,45.472321],[-73.570036,45.472319],[-73.57011,45.472322],
                        [-73.570521,45.472337],[-73.571019,45.472364],[-73.571337,45.472391],
                        [-73.571479,45.472418],[-73.571532,45.472418],[-73.571549,45.472422],
                        [-73.57171,45.4725],[-73.571878,45.47266],[-73.571878,45.472733],
                        [-73.571878,45.472738],[-73.571883,45.472745],[-73.572174,45.473136],
                        [-73.572367,45.473647],[-73.572394,45.473737],[-73.572804,45.474746],
                        [-73.57292,45.475007],[-73.57315,45.475519],[-73.573175,45.475599],
                        [-73.573177,45.475606],[-73.573184,45.475612],[-73.5733,45.475702],
                        [-73.573469,45.475829],[-73.573727,45.475966],[-73.573803,45.476021],
                        [-73.573805,45.47602],[-73.573902,45.476088],[-73.574131,45.476276],
                        [-73.574618,45.47668],[-73.574757,45.476806],[-73.576729,45.478523],
                        [-73.577356,45.479089],[-73.577596,45.479347],[-73.577721,45.479646],
                        [-73.577758,45.479846],[-73.577723,45.480002],[-73.577669,45.480095],
                        [-73.577599,45.480219],[-73.577372,45.480469],[-73.577232,45.480585],
                        [-73.577223,45.480597],[-73.577225,45.48061],[-73.577276,45.480745],
                        [-73.577279,45.480751],[-73.577282,45.480754],[-73.577772,45.481202],
                        [-73.577772,45.481201],[-73.577869,45.481291],[-73.578251,45.481917],
                        [-73.578597,45.482493],[-73.578914,45.482991],[-73.578969,45.483078],
                        [-73.579347,45.483702],[-73.579443,45.48386],[-73.579841,45.484499],
                        [-73.580033,45.484814],[-73.580477,45.485513],[-73.580478,45.485513],
                        [-73.58056,45.485643],[-73.581433,45.486795],[-73.581627,45.487013],
                        [-73.581821,45.487186],[-73.582231,45.487501],[-73.582419,45.487652],
                        [-73.582974,45.488093],[-73.583062,45.488173],[-73.583677,45.488776],
                        [-73.583794,45.488876],[-73.584229,45.489209],[-73.584268,45.48924],
                        [-73.584388,45.489336],[-73.583655,45.489993],[-73.583556,45.49007],
                        [-73.582736,45.489561],[-73.582831,45.489502],[-73.583727,45.488772],
                        [-73.583854,45.488673],[-73.583872,45.488656],[-73.583866,45.488645],
                        [-73.583263,45.488077],[-73.583158,45.488003],[-73.583136,45.487996],
                        [-73.583111,45.488],[-73.582989,45.488051],[-73.582451,45.488196],
                        [-73.582012,45.488351],[-73.581549,45.488568],[-73.581473,45.488604],
                        [-73.580666,45.489001],[-73.580116,45.489289],[-73.579234,45.489731],
                        [-73.578502,45.490138],[-73.578214,45.49036],[-73.578213,45.49036],
                        [-73.577936,45.490574],[-73.577449,45.491106],[-73.576874,45.491692],
                        [-73.576552,45.492065],[-73.57644,45.492197],[-73.575711,45.492934],
                        [-73.575028,45.493658],[-73.575027,45.493658],[-73.574919,45.493771],
                        [-73.574229,45.494465],[-73.573685,45.495043],[-73.573526,45.495212],
                        [-73.573015,45.495734],[-73.572236,45.496537],[-73.571592,45.49722],
                        [-73.571506,45.497311],[-73.570962,45.497891],[-73.570855,45.498004],
                        [-73.570243,45.49867],[-73.569604,45.499328],[-73.569035,45.499958],
                        [-73.569036,45.499958],[-73.568939,45.500066],[-73.568032,45.501011],
                        [-73.567303,45.501776],[-73.567188,45.501894],[-73.56681,45.502327],
                        [-73.566676,45.50248],[-73.566484,45.502697],[-73.566266,45.503012],
                        [-73.565673,45.503783],[-73.565346,45.504209],[-73.564593,45.505163],
                        [-73.564146,45.505694],[-73.563839,45.50609],[-73.563591,45.506367],
                        [-73.562459,45.507637],[-73.561781,45.508385],[-73.561531,45.508688],
                        [-73.561462,45.508772],[-73.56104,45.50924],[-73.560324,45.510052],
                        [-73.559964,45.510566],[-73.55989,45.510672],[-73.559468,45.51113],
                        [-73.558956,45.511698],[-73.558175,45.512567],[-73.5581,45.512652],
                        [-73.557831,45.51294],[-73.557499,45.5133],[-73.557422,45.513392],
                        [-73.557294,45.513543],[-73.556962,45.513903],[-73.556639,45.514262],
                        [-73.55654,45.514371],[-73.555544,45.515488],[-73.555135,45.51592],
                        [-73.554827,45.51626],[-73.554713,45.516387],[-73.554268,45.516834],
                        [-73.553783,45.517212],[-73.553245,45.517601],[-73.552769,45.518026],
                        [-73.552167,45.518693],[-73.552013,45.518856],[-73.551617,45.519278],
                        [-73.551003,45.519944],[-73.550378,45.52061],[-73.549935,45.521076],
                        [-73.549841,45.521177],[-73.549726,45.521311],[-73.549636,45.521392],
                        [-73.549521,45.521528],[-73.549061,45.522014],[-73.548702,45.522401],
                        [-73.548397,45.522679],[-73.547824,45.523181],[-73.547515,45.523365],
                        [-73.547207,45.523231],[-73.546989,45.523132],[-73.546296,45.522808],
                        [-73.546214,45.52278],[-73.546045,45.522743],[-73.545867,45.522698],
                        [-73.545837,45.5227],[-73.545817,45.522715],[-73.545792,45.522769],
                        [-73.545587,45.523276],[-73.545497,45.523682],[-73.545382,45.524277],
                        [-73.54523,45.525843],[-73.545166,45.526156],[-73.545013,45.526658],
                        [-73.544872,45.527063],[-73.54426,45.528755],[-73.54403,45.529358],
                        [-73.54403,45.529375],[-73.544047,45.529388],[-73.54429,45.529487],
                        [-73.54502,45.529792],[-73.545545,45.530017],[-73.546019,45.530215],
                        [-73.546506,45.530425],[-73.546621,45.530476],[-73.547006,45.530646],
                        [-73.548323,45.531195],[-73.548453,45.531249],[-73.54885,45.53142],
                        [-73.5499,45.531878],[-73.55215,45.53284],[-73.552425,45.532957],
                        [-73.552599,45.533027],[-73.552454,45.533192],[-73.552198,45.5335],
                        [-73.552073,45.533449],[-73.551449,45.5332]],
                
                       [[-73.551449,45.5332],[-73.550586,45.532856],[-73.549679,45.532503],
                        [-73.549433,45.532406],[-73.547922,45.531831],[-73.546616,45.531315],
                        [-73.546614,45.531315],[-73.546521,45.531278],[-73.546803,45.530917],
                        [-73.547058,45.530637],[-73.547557,45.53007],[-73.547561,45.53005],
                        [-73.547544,45.530033],[-73.547147,45.529872],[-73.546865,45.529755],
                        [-73.546532,45.529611],[-73.546071,45.529413],[-73.545535,45.529179],
                        [-73.545252,45.529054],[-73.544916,45.528918],[-73.54465,45.528828],
                        [-73.545179,45.527527],[-73.545306,45.527183],[-73.545421,45.526695],
                        [-73.545485,45.52628],[-73.545498,45.526117],[-73.545548,45.525739],
                        [-73.545573,45.525477],[-73.545723,45.525319],[-73.545827,45.525155],
                        [-73.545927,45.525014],[-73.546117,45.5248],[-73.546281,45.524657],
                        [-73.546752,45.524344],[-73.547507,45.523859],[-73.547815,45.523668],
                        [-73.547907,45.523594],[-73.548268,45.523232],[-73.54892,45.522502],
                        [-73.549278,45.522116],[-73.549905,45.521459],[-73.550608,45.520712],
                        [-73.551222,45.520045],[-73.551567,45.519685],[-73.551836,45.519388],
                        [-73.552287,45.518901],[-73.552386,45.518794],[-73.552985,45.518129],
                        [-73.553457,45.517698],[-73.553979,45.517321],[-73.554519,45.516923],
                        [-73.554835,45.5166],[-73.554944,45.516488],[-73.555353,45.51602],
                        [-73.555822,45.515499],[-73.555822,45.5155],[-73.555928,45.515382],
                        [-73.556324,45.51494],[-73.556649,45.514573],[-73.556746,45.514463],
                        [-73.557168,45.514005],[-73.55738,45.513775],[-73.557501,45.513645],
                        [-73.558232,45.512841],[-73.558319,45.512744],[-73.5592,45.511808],
                        [-73.559457,45.511538],[-73.559725,45.51124],[-73.56007,45.510853],
                        [-73.560135,45.51078],[-73.560556,45.510169],[-73.561284,45.50935],
                        [-73.561708,45.508881],[-73.561895,45.508638],[-73.562014,45.508485],
                        [-73.56256,45.507882],[-73.56269,45.507739],[-73.564072,45.506199],
                        [-73.564348,45.505858],[-73.564826,45.50527],[-73.565593,45.504325],
                        [-73.566448,45.503202],[-73.56654,45.503082],[-73.566858,45.502596],
                        [-73.567324,45.502072],[-73.567393,45.501995],[-73.567494,45.501897],
                        [-73.567661,45.501734],[-73.568237,45.501104],[-73.56902,45.500256],
                        [-73.569118,45.50015],[-73.569743,45.499501],[-73.570231,45.498995],
                        [-73.570422,45.498799],[-73.570979,45.498195],[-73.571061,45.498106],
                        [-73.571725,45.497403],[-73.572363,45.496716],[-73.572428,45.496647],
                        [-73.573155,45.495909],[-73.573623,45.495419],[-73.57373,45.495305],
                        [-73.574446,45.494567],[-73.575014,45.493988],[-73.575015,45.493989],
                        [-73.575137,45.493865],[-73.575916,45.493036],[-73.576505,45.492424],
                        [-73.576618,45.492307],[-73.577652,45.491218],[-73.578186,45.490662],
                        [-73.578721,45.490259],[-73.579373,45.489879],[-73.579373,45.489878],
                        [-73.57946,45.489828],[-73.580276,45.489405],[-73.580711,45.489185],
                        [-73.580826,45.489126],[-73.581683,45.488684],[-73.582064,45.488514],
                        [-73.582406,45.48838],[-73.583079,45.48819],[-73.583677,45.488776],
                        [-73.583794,45.488876],[-73.584229,45.489209],[-73.584388,45.489336],
                        [-73.583655,45.489993],[-73.583556,45.49007],[-73.582736,45.489561],
                        [-73.582831,45.489502],[-73.583359,45.489072],[-73.583727,45.488772],
                        [-73.583854,45.488673],[-73.583872,45.488656],[-73.583866,45.488645],
                        [-73.583477,45.488278],[-73.583263,45.488077],[-73.583159,45.488004],
                        [-73.582147,45.487186],[-73.58193,45.487025],[-73.581793,45.486885],
                        [-73.581486,45.486499],[-73.581127,45.486031],[-73.580807,45.48559],
                        [-73.580808,45.48559],[-73.580757,45.485519],[-73.580501,45.485143],
                        [-73.579654,45.483758],[-73.57918,45.482994],[-73.579057,45.482772],
                        [-73.579056,45.482772],[-73.578975,45.482625],[-73.578821,45.48239],
                        [-73.578449,45.481824],[-73.578159,45.481303],[-73.578088,45.481174],
                        [-73.577933,45.481028],[-73.577641,45.480716],[-73.577603,45.480655],
                        [-73.577559,45.480577],[-73.577587,45.480536],[-73.5777,45.480439],
                        [-73.577791,45.480366],[-73.577859,45.48029],[-73.577924,45.48017],
                        [-73.577963,45.480077],[-73.577989,45.479946],[-73.577976,45.479853],
                        [-73.577976,45.479772],[-73.577971,45.479752],[-73.577937,45.479607],
                        [-73.577833,45.479369],[-73.577768,45.479259],[-73.577688,45.479149],
                        [-73.577418,45.478885],[-73.576917,45.478436],[-73.574932,45.476718],
                        [-73.574804,45.476602],[-73.57419,45.476062],[-73.574025,45.475918],
                        [-73.573859,45.475758],[-73.57368,45.475543],[-73.57326,45.474933],
                        [-73.573106,45.4747],[-73.572952,45.474457],[-73.572581,45.473705],
                        [-73.572544,45.473615],[-73.572376,45.473155],[-73.57204,45.472684],
                        [-73.572034,45.472679],[-73.572029,45.472675],[-73.571944,45.472632],
                        [-73.571765,45.472461],[-73.571594,45.472378],[-73.571572,45.472363],
                        [-73.57153,45.47231],[-73.571522,45.472305],[-73.571513,45.472301],
                        [-73.571398,45.472284],[-73.571101,45.472248],[-73.570717,45.472236],
                        [-73.570524,45.47223],[-73.569818,45.472204],[-73.569647,45.472222],
                        [-73.569513,45.47225],[-73.569189,45.471769],[-73.568586,45.470825],
                        [-73.568266,45.470357],[-73.568093,45.470097],[-73.567792,45.469646],
                        [-73.567459,45.469116],[-73.56719,45.468693],[-73.566959,45.468333],
                        [-73.566875,45.468208],[-73.566876,45.468208],[-73.566553,45.467727],
                        [-73.566622,45.467604],[-73.56666,45.467428],[-73.566647,45.46713],
                        [-73.566839,45.465007],[-73.566849,45.464899],[-73.567028,45.462898],
                        [-73.567036,45.462812],[-73.568105,45.462863],[-73.569045,45.462894],
                        [-73.569192,45.462899],[-73.570252,45.462952],[-73.571339,45.463005],
                        [-73.571364,45.463001],[-73.571373,45.46298],[-73.571453,45.462192],
                        [-73.571462,45.462098],[-73.571537,45.461207],[-73.571613,45.460316],
                        [-73.571689,45.459433],[-73.571701,45.459209],[-73.571711,45.459119],
                        [-73.571764,45.458615],[-73.571815,45.458049],[-73.571865,45.457464],
                        [-73.571928,45.456879],[-73.571969,45.456395],[-73.571979,45.456267],
                        [-73.572042,45.455592],[-73.572098,45.454918],[-73.572105,45.454846],
                        [-73.572117,45.454773],[-73.572117,45.454719],[-73.572193,45.453846],
                        [-73.572256,45.453063],[-73.572299,45.452616],[-73.572305,45.452549],
                        [-73.576633,45.452707],[-73.577036,45.452723],[-73.581873,45.452913],
                        [-73.582009,45.452918],[-73.581778,45.453452],[-73.58165,45.453721],
                        [-73.581574,45.453865],[-73.581487,45.453969],[-73.581423,45.454068],
                        [-73.581322,45.454184],[-73.581183,45.454336],[-73.580813,45.454694],
                        [-73.580799,45.454707],[-73.580708,45.454835],[-73.580515,45.455115],
                        [-73.580222,45.455611],[-73.580031,45.455926],[-73.579907,45.456152],
                        [-73.579902,45.456162],[-73.579813,45.456397],[-73.579724,45.456649],
                        [-73.579673,45.456766],[-73.579596,45.456973],[-73.579533,45.457135],
                        [-73.579539,45.45716],[-73.579577,45.457159],[-73.579735,45.457121],
                        [-73.579851,45.457059],[-73.57998,45.457028],[-73.580028,45.457024],
                        [-73.580987,45.457033],[-73.58109,45.457034],[-73.581166,45.457033],
                        [-73.581779,45.457059],[-73.582062,45.457071],[-73.582226,45.457077],
                        [-73.58495,45.457168],[-73.585142,45.457174],[-73.587818,45.45728],
                        [-73.587929,45.457268],[-73.588172,45.457243],[-73.58834,45.457188],
                        [-73.588456,45.457169],[-73.588566,45.457131],[-73.588659,45.457075],
                        [-73.588761,45.457026],[-73.588859,45.457009],[-73.588981,45.457],
                        [-73.58977,45.457026],[-73.59039,45.457053],[-73.590589,45.457062],
                        [-73.592737,45.457135],[-73.592916,45.457141],[-73.593954,45.457176],
                        [-73.594151,45.457167],[-73.5945,45.457103],[-73.595433,45.456932],
                        [-73.595455,45.456921],[-73.595455,45.456899],[-73.595018,45.455757],
                        [-73.594748,45.455046],[-73.594414,45.454144],[-73.594376,45.454039],
                        [-73.593361,45.451358],[-73.593297,45.45116],[-73.59322,45.450962],
                        [-73.593171,45.450833],[-73.592253,45.448405],[-73.592206,45.448281],
                        [-73.591575,45.446641],[-73.591574,45.44664],[-73.591522,45.446574],
                        [-73.592241,45.445827],[-73.592636,45.445401],[-73.593581,45.445541],
                        [-73.594966,45.445764],[-73.595141,45.445792],[-73.596202,45.445953],
                        [-73.597135,45.446096],[-73.598133,45.446248],[-73.599002,45.446383],
                        [-73.599169,45.446409],[-73.600217,45.44657],[-73.601304,45.446731],
                        [-73.60217,45.446863],[-73.602365,45.446892],[-73.603414,45.447062],
                        [-73.604463,45.447214],[-73.604487,45.447213],[-73.604496,45.44719],
                        [-73.604521,45.447063],[-73.604534,45.446937],[-73.604534,45.446933],
                        [-73.604531,45.446928],[-73.604455,45.44682],[-73.604402,45.446737],
                        [-73.603998,45.446445],[-73.603987,45.446441],[-73.603913,45.446416],
                        [-73.603826,45.446415],[-73.603727,45.446445],[-73.603671,45.446483],
                        [-73.603544,45.446583],[-73.603537,45.4466],[-73.603553,45.446611],
                        [-73.604415,45.446843],[-73.604484,45.446939],[-73.604471,45.44706],
                        [-73.604446,45.447186],[-73.604445,45.447208],[-73.604465,45.447214],
                        [-73.604621,45.447232],[-73.605021,45.44725],[-73.605407,45.447231],
                        [-73.606176,45.447159],[-73.606505,45.44714],[-73.607547,45.447121],
                        [-73.607903,45.447157],[-73.608266,45.447236],[-73.608543,45.447333],
                        [-73.609104,45.447583],[-73.609512,45.44779],[-73.609653,45.447862],
                        [-73.60968,45.447867],[-73.609704,45.447858],[-73.609844,45.44775],
                        [-73.610866,45.446956],[-73.611136,45.446742],[-73.612078,45.445993],
                        [-73.612142,45.445948],[-73.612552,45.445635],[-73.613316,45.445047],
                        [-73.614116,45.444422],[-73.614116,45.444421],[-73.614374,45.444219],
                        [-73.614628,45.444057],[-73.615661,45.443373],[-73.617026,45.442599],
                        [-73.61902,45.441477],[-73.619377,45.441636],[-73.619487,45.441684],
                        [-73.619486,45.441684],[-73.622512,45.442991],[-73.625698,45.444401],
                        [-73.625719,45.444408],[-73.625731,45.444403],[-73.628831,45.442607],
                        [-73.628983,45.44252],[-73.631331,45.44359],[-73.63133,45.44359],
                        [-73.633684,45.444662],[-73.633748,45.444692],[-73.634324,45.444953],
                        [-73.634345,45.444961],[-73.634359,45.444958],[-73.63611,45.444317],
                        [-73.636276,45.444254],[-73.636295,45.444235],[-73.636272,45.444215],
                        [-73.634009,45.443166],[-73.633863,45.443003],[-73.63385,45.442843],
                        [-73.63413,45.442429],[-73.634156,45.442282],[-73.634156,45.442276],
                        [-73.634154,45.442273],[-73.63405,45.44209],[-73.633947,45.442004],
                        [-73.63392,45.441981],[-73.633907,45.441975],[-73.633892,45.441975],
                        [-73.633777,45.442002],[-73.633766,45.442006],[-73.633761,45.442013],
                        [-73.633723,45.442094],[-73.633721,45.442104],[-73.633727,45.442111],
                        [-73.633864,45.442225],[-73.633962,45.44237],[-73.633637,45.442839],
                        [-73.633633,45.442844],[-73.633634,45.442848],[-73.63366,45.443046],
                        [-73.63366,45.443052],[-73.633664,45.443055],[-73.633847,45.443246],
                        [-73.636029,45.444285],[-73.634637,45.444795],[-73.634338,45.444905],
                        [-73.633783,45.444654],[-73.63093,45.443355],[-73.628997,45.442474],
                        [-73.628976,45.44247],[-73.62896,45.442475],[-73.628476,45.442755],
                        [-73.625837,45.444284],[-73.625703,45.444361],[-73.622539,45.442961],
                        [-73.619921,45.441829],[-73.61992,45.441829],[-73.619413,45.44161],
                        [-73.619351,45.441359],[-73.619361,45.441292],[-73.620246,45.440804],
                        [-73.620283,45.440777],[-73.620964,45.440378],[-73.621714,45.439938],
                        [-73.622154,45.439633],[-73.622342,45.439503],[-73.623749,45.43819],
                        [-73.623812,45.438132],[-73.625393,45.436639],[-73.625521,45.436519],
                        [-73.628753,45.433526],[-73.628888,45.433402],[-73.629169,45.433132],
                        [-73.629447,45.43289],[-73.629712,45.432704],[-73.630105,45.432488],
                        [-73.630119,45.432464],[-73.630091,45.432446],[-73.629977,45.432419],
                        [-73.629883,45.432394],[-73.629798,45.432326],[-73.629793,45.432324],
                        [-73.629788,45.432321],[-73.629505,45.43223],[-73.629299,45.43218],
                        [-73.62788,45.431836],[-73.626998,45.431639],[-73.626569,45.431533],
                        [-73.625885,45.431362],[-73.624948,45.431155],[-73.624626,45.431119],
                        [-73.624206,45.431091],[-73.623971,45.431075],[-73.621585,45.431069],
                        [-73.621401,45.431069],[-73.619498,45.431054],[-73.619369,45.431053],
                        [-73.619024,45.431053],[-73.617963,45.431045],[-73.616853,45.431037],
                        [-73.616382,45.43102],[-73.616019,45.43097],[-73.615273,45.430868],
                        [-73.614162,45.430698],[-73.613839,45.43064],[-73.613663,45.430609],
                        [-73.611751,45.430303],[-73.61154,45.430269],[-73.611166,45.430215],
                        [-73.61092,45.430206],[-73.610566,45.430207],[-73.610375,45.430189],
                        [-73.610178,45.430146],[-73.610017,45.430094],[-73.609917,45.430024],
                        [-73.609788,45.429951],[-73.608973,45.429396],[-73.608731,45.429217],
                        [-73.608654,45.429146],[-73.608421,45.428954],[-73.608176,45.428809],
                        [-73.607197,45.428327],[-73.607151,45.428305],[-73.60656,45.428044],
                        [-73.606263,45.427936],[-73.606592,45.427521],[-73.606655,45.427443],
                        [-73.607942,45.425759],[-73.608297,45.425328],[-73.608401,45.4252],
                        [-73.608529,45.425029],[-73.60863,45.424914],[-73.608781,45.424781],
                        [-73.60897,45.424646],[-73.609135,45.424548],[-73.609274,45.424477],
                        [-73.609489,45.424388],[-73.60973,45.424316],[-73.610611,45.424018],
                        [-73.610886,45.423927],[-73.611454,45.423739],[-73.611467,45.423728],
                        [-73.611465,45.423713],[-73.610393,45.422288],[-73.610274,45.422131],
                        [-73.609813,45.421519],[-73.609394,45.420948],[-73.609364,45.420908],
                        [-73.608843,45.420184],[-73.609277,45.420076],[-73.609277,45.420077],
                        [-73.611101,45.419622],[-73.611333,45.419571],[-73.611333,45.419572],
                        [-73.611471,45.419541],[-73.612974,45.419165],[-73.613131,45.419125],
                        [-73.613923,45.418917],[-73.615609,45.41852],[-73.616297,45.418333],
                        [-73.616439,45.418294],[-73.61732,45.418077],[-73.617563,45.418023],
                        [-73.617756,45.417969],[-73.618565,45.417755],[-73.618712,45.417716],
                        [-73.619491,45.417517],[-73.620181,45.417336],[-73.621425,45.417025],
                        [-73.621425,45.417025],[-73.621621,45.416976],[-73.622242,45.416903],
                        [-73.623556,45.416884],[-73.624667,45.416864],[-73.625578,45.416871],
                        [-73.625578,45.416872],[-73.625739,45.416872],[-73.626404,45.416872],
                        [-73.626424,45.416868],[-73.626429,45.416849],[-73.626415,45.415513],
                        [-73.626413,45.41542],[-73.627365,45.415489],[-73.628284,45.415676],
                        [-73.628599,45.415715],[-73.629245,45.415793],[-73.629966,45.415846],
                        [-73.630431,45.415828],[-73.630776,45.415782],[-73.631278,45.415773],
                        [-73.631748,45.415826],[-73.632242,45.415915],[-73.632436,45.415995],
                        [-73.632286,45.416333],[-73.632014,45.416945],[-73.632016,45.41696],
                        [-73.632033,45.416969],[-73.632546,45.417046],[-73.632918,45.417103],
                        [-73.633856,45.417111],[-73.634344,45.417056],[-73.635238,45.416956],
                        [-73.636034,45.416869],[-73.636068,45.416865],[-73.636257,45.416847],
                        [-73.637302,45.416818],[-73.638336,45.416889],[-73.638603,45.416916],
                        [-73.63948,45.417001],[-73.639613,45.417014],[-73.640494,45.41713],
                        [-73.641449,45.417352],[-73.643061,45.41772],[-73.64371,45.417862],
                        [-73.644007,45.417926],[-73.644031,45.417928],[-73.644044,45.417915],
                        [-73.644307,45.417306],[-73.645393,45.41799],[-73.646303,45.418565],
                        [-73.647354,45.419193],[-73.64761,45.419338],[-73.648045,45.419589],
                        [-73.648366,45.41977],[-73.648679,45.419914],[-73.648815,45.419977],
                        [-73.649494,45.420282],[-73.650226,45.42057],[-73.65145,45.420955],
                        [-73.651566,45.420992],[-73.651271,45.421743],[-73.650991,45.422399],
                        [-73.650857,45.422682],[-73.650661,45.423092],[-73.65033,45.423741],
                        [-73.65,45.424552],[-73.649873,45.424839],[-73.6497,45.425208],
                        [-73.649255,45.425365],[-73.649044,45.425439],[-73.648976,45.425364],
                        [-73.648912,45.425247],[-73.648907,45.425243],[-73.648903,45.425239],
                        [-73.64866,45.425122],[-73.648467,45.425041],[-73.648462,45.42504],
                        [-73.648453,45.425039],[-73.64835,45.425039],[-73.648342,45.42504],
                        [-73.648335,45.425043],[-73.648282,45.425073],[-73.648176,45.425201],
                        [-73.648099,45.425319],[-73.647985,45.425472],[-73.647981,45.425477],
                        [-73.647981,45.425481],[-73.647981,45.4255]]]
      }
    },
  ]
}
